[{"OBJECT_NAME":"IRIDIUM 146","OBJECT_ID":"2018-030F","EPOCH":"2026-03-09T19:45:19.387584","MEAN_MOTION":14.34218061,"ECCENTRICITY":0.00021492,"INCLINATION":86.4005,"RA_OF_ASC_NODE":331.9763,"ARG_OF_PERICENTER":89.3889,"MEAN_ANOMALY":270.7553,"EPHEMERIS_TYPE":0,"CLASSIFICATION_TYPE":"U","NORAD_CAT_ID":43254,"ELEMENT_SET_NO":999,"REV_AT_EPOCH":41589,"BSTAR":7.1120516e-5,"MEAN_MOTION_DOT":2.19e-6,"MEAN_MOTION_DDOT":0},{"OBJECT_NAME":"COSMOS 1275 DEB","OBJECT_ID":"1981-053LU","EPOCH":"2026-03-09T05:37:54.535872","MEAN_MOTION":14.3337793,"ECCENTRICITY":0.00120633,"INCLINATION":82.937,"RA_OF_ASC_NODE":154.8396,"ARG_OF_PERICENTER":109.2856,"MEAN_ANOMALY":279.0731,"EPHEMERIS_TYPE":0,"CLASSIFICATION_TYPE":"U","NORAD_CAT_ID":18592,"ELEMENT_SET_NO":999,"REV_AT_EPOCH":68939,"BSTAR":0.0017655651,"MEAN_MOTION_DOT":4.888e-5,"MEAN_MOTION_DDOT":0}]
